sat03892
1 03892U 69037C   20046.65729933 -.00000046  00000-0 -18945-5 0  9997
2 03892  99.9622 322.1868 0038507 282.9910 135.6536 13.41930699489112
